{
  "type": "FeatureCollection",
  "features": [
    {
      "type": "Feature",
      "properties": {
        "norad_id": 57400,
        "name": "TIANMU-1 08",
        "group": "weather",
        "lat": 10.133388102187807,
        "lon": 32.600059803516615,
        "alt_km": 482.60443917228895,
        "timestamp": "2025-12-10T04:57:29.249765+00:00",
        "meta_object_name": "TIANMU-1 08",
        "meta_object_id": "2023-101B",
        "meta_epoch": "2025-12-09T21:03:18.141120",
        "meta_mean_motion": 15.27990194,
        "meta_eccentricity": 0.0007562,
        "meta_inclination": 97.2865,
        "meta_ra_of_asc_node": 33.5885,
        "meta_arg_of_pericenter": 91.7486,
        "meta_mean_anomaly": 268.462,
        "meta_ephemeris_type": 0,
        "meta_classification_type": "U",
        "meta_norad_cat_id": 57400,
        "meta_element_set_no": 999,
        "meta_rev_at_epoch": 13271,
        "meta_bstar": 0.00042432,
        "meta_mean_motion_dot": 0.0001153,
        "meta_mean_motion_ddot": 0,
        "tle_line1": "1 57400U 23101B   25343.87729330  .00011530  00000+0  42432-3 0  9996",
        "tle_line2": "2 57400  97.2865  33.5885 0007562  91.7486 268.4620 15.27990194132711"
      },
      "geometry": {
        "type": "Point",
        "coordinates": [
          32.600059803516615,
          10.133388102187807
        ]
      }
    },
    {
      "type": "Feature",
      "properties": {
        "norad_id": 57401,
        "name": "TIANMU-1 09",
        "group": "weather",
        "lat": 79.757129132041,
        "lon": -11.620549846572501,
        "alt_km": 469.71797678255825,
        "timestamp": "2025-12-10T04:57:29.249775+00:00",
        "meta_object_name": "TIANMU-1 09",
        "meta_object_id": "2023-101C",
        "meta_epoch": "2025-12-09T20:44:20.858784",
        "meta_mean_motion": 15.28017101,
        "meta_eccentricity": 0.0006817,
        "meta_inclination": 97.2822,
        "meta_ra_of_asc_node": 33.0906,
        "meta_arg_of_pericenter": 91.5267,
        "meta_mean_anomaly": 268.6753,
        "meta_ephemeris_type": 0,
        "meta_classification_type": "U",
        "meta_norad_cat_id": 57401,
        "meta_element_set_no": 999,
        "meta_rev_at_epoch": 13271,
        "meta_bstar": 0.0004251,
        "meta_mean_motion_dot": 0.00011559,
        "meta_mean_motion_ddot": 0,
        "tle_line1": "1 57401U 23101C   25343.86413031  .00011559  00000+0  42510-3 0  9992",
        "tle_line2": "2 57401  97.2822  33.0906 0006817  91.5267 268.6753 15.28017101132719"
      },
      "geometry": {
        "type": "Point",
        "coordinates": [
          -11.620549846572501,
          79.757129132041
        ]
      }
    },
    {
      "type": "Feature",
      "properties": {
        "norad_id": 57402,
        "name": "TIANMU-1 10",
        "group": "weather",
        "lat": -73.24286601994022,
        "lon": -170.88902097291654,
        "alt_km": 494.7403632448768,
        "timestamp": "2025-12-10T04:57:29.249786+00:00",
        "meta_object_name": "TIANMU-1 10",
        "meta_object_id": "2023-101D",
        "meta_epoch": "2025-12-09T19:59:17.623968",
        "meta_mean_motion": 15.28006823,
        "meta_eccentricity": 0.0008569,
        "meta_inclination": 97.2902,
        "meta_ra_of_asc_node": 33.9067,
        "meta_arg_of_pericenter": 91.7649,
        "meta_mean_anomaly": 268.4572,
        "meta_ephemeris_type": 0,
        "meta_classification_type": "U",
        "meta_norad_cat_id": 57402,
        "meta_element_set_no": 999,
        "meta_rev_at_epoch": 13270,
        "meta_bstar": 0.00043272,
        "meta_mean_motion_dot": 0.00011769,
        "meta_mean_motion_ddot": 0,
        "tle_line1": "1 57402U 23101D   25343.83284287  .00011769  00000+0  43272-3 0  9998",
        "tle_line2": "2 57402  97.2902  33.9067 0008569  91.7649 268.4572 15.28006823132703"
      },
      "geometry": {
        "type": "Point",
        "coordinates": [
          -170.88902097291654,
          -73.24286601994022
        ]
      }
    },
    {
      "type": "Feature",
      "properties": {
        "norad_id": 57490,
        "name": "FENGYUN 3F",
        "group": "weather",
        "lat": 57.92499541855092,
        "lon": 38.38390105398597,
        "alt_km": 819.7195776676863,
        "timestamp": "2025-12-10T04:57:29.249798+00:00",
        "meta_object_name": "FENGYUN 3F",
        "meta_object_id": "2023-111A",
        "meta_epoch": "2025-12-09T20:13:30.392832",
        "meta_mean_motion": 14.19892553,
        "meta_eccentricity": 6.54e-05,
        "meta_inclination": 98.7087,
        "meta_ra_of_asc_node": 52.1828,
        "meta_arg_of_pericenter": 96.3722,
        "meta_mean_anomaly": 263.7529,
        "meta_ephemeris_type": 0,
        "meta_classification_type": "U",
        "meta_norad_cat_id": 57490,
        "meta_element_set_no": 999,
        "meta_rev_at_epoch": 12199,
        "meta_bstar": 0.00010378,
        "meta_mean_motion_dot": 1.77e-06,
        "meta_mean_motion_ddot": 0,
        "tle_line1": "1 57490U 23111A   25343.84271288  .00000177  00000+0  10378-3 0  9996",
        "tle_line2": "2 57490  98.7087  52.1828 0000654  96.3722 263.7529 14.19892553121999"
      },
      "geometry": {
        "type": "Point",
        "coordinates": [
          38.38390105398597,
          57.92499541855092
        ]
      }
    },
    {
      "type": "Feature",
      "properties": {
        "norad_id": 58584,
        "name": "ARKTIKA-M 2",
        "group": "weather",
        "lat": 49.89994415576649,
        "lon": -41.693342389831166,
        "alt_km": 26768.578915739443,
        "timestamp": "2025-12-10T04:57:29.249810+00:00",
        "meta_object_name": "ARKTIKA-M 2",
        "meta_object_id": "2023-198A",
        "meta_epoch": "2025-12-08T20:10:13.977120",
        "meta_mean_motion": 2.0060476,
        "meta_eccentricity": 0.68646991,
        "meta_inclination": 63.2247,
        "meta_ra_of_asc_node": 175.3152,
        "meta_arg_of_pericenter": 268.1185,
        "meta_mean_anomaly": 18.8267,
        "meta_ephemeris_type": 0,
        "meta_classification_type": "U",
        "meta_norad_cat_id": 58584,
        "meta_element_set_no": 999,
        "meta_rev_at_epoch": 1450,
        "meta_bstar": 0,
        "meta_mean_motion_dot": 1.66e-06,
        "meta_mean_motion_ddot": 0,
        "tle_line1": "1 58584U 23198A   25342.84043955  .00000166  00000+0  00000+0 0  9998",
        "tle_line2": "2 58584  63.2247 175.3152 6864699 268.1185  18.8267  2.00604760 14506"
      },
      "geometry": {
        "type": "Point",
        "coordinates": [
          -41.693342389831166,
          49.89994415576649
        ]
      }
    },
    {
      "type": "Feature",
      "properties": {
        "norad_id": 58645,
        "name": "TIANMU-1 11",
        "group": "weather",
        "lat": 72.78368231050597,
        "lon": -151.46819978985067,
        "alt_km": 489.7280820758733,
        "timestamp": "2025-12-10T04:57:29.249826+00:00",
        "meta_object_name": "TIANMU-1 11",
        "meta_object_id": "2023-205A",
        "meta_epoch": "2025-12-09T20:37:13.609056",
        "meta_mean_motion": 15.24544377,
        "meta_eccentricity": 0.0008148,
        "meta_inclination": 97.3609,
        "meta_ra_of_asc_node": 3.5328,
        "meta_arg_of_pericenter": 322.2029,
        "meta_mean_anomaly": 37.8635,
        "meta_ephemeris_type": 0,
        "meta_classification_type": "U",
        "meta_norad_cat_id": 58645,
        "meta_element_set_no": 999,
        "meta_rev_at_epoch": 10865,
        "meta_bstar": 0.00040058,
        "meta_mean_motion_dot": 9.803e-05,
        "meta_mean_motion_ddot": 0,
        "tle_line1": "1 58645U 23205A   25343.85918529  .00009803  00000+0  40058-3 0  9993",
        "tle_line2": "2 58645  97.3609   3.5328 0008148 322.2029  37.8635 15.24544377108650"
      },
      "geometry": {
        "type": "Point",
        "coordinates": [
          -151.46819978985067,
          72.78368231050597
        ]
      }
    },
    {
      "type": "Feature",
      "properties": {
        "norad_id": 58646,
        "name": "TIANMU-1 12",
        "group": "weather",
        "lat": -40.86098842773475,
        "lon": 10.100012223596513,
        "alt_km": 495.1150178180087,
        "timestamp": "2025-12-10T04:57:29.249836+00:00",
        "meta_object_name": "TIANMU-1 12",
        "meta_object_id": "2023-205B",
        "meta_epoch": "2025-12-09T21:15:42.555744",
        "meta_mean_motion": 15.24425295,
        "meta_eccentricity": 0.0006046,
        "meta_inclination": 97.3597,
        "meta_ra_of_asc_node": 3.3655,
        "meta_arg_of_pericenter": 304.2794,
        "meta_mean_anomaly": 55.7871,
        "meta_ephemeris_type": 0,
        "meta_classification_type": "U",
        "meta_norad_cat_id": 58646,
        "meta_element_set_no": 999,
        "meta_rev_at_epoch": 10864,
        "meta_bstar": 0.00041839,
        "meta_mean_motion_dot": 0.00010202,
        "meta_mean_motion_ddot": 0,
        "tle_line1": "1 58646U 23205B   25343.88590921  .00010202  00000+0  41839-3 0  9992",
        "tle_line2": "2 58646  97.3597   3.3655 0006046 304.2794  55.7871 15.24425295108649"
      },
      "geometry": {
        "type": "Point",
        "coordinates": [
          10.100012223596513,
          -40.86098842773475
        ]
      }
    }
  ]
}